#aV2023 11 16  0  0  0.00000000     288 DD+AD WGS84 FIT  NGA
## 2288 345600.00000000   300.00000000 60264 0.0000000000000
+   32     1  2  3  4  5  6  7  8  9 10 11 12 13 14 15 16 17
+         18 19 20 21 22 23 24 25 26 27 28 29 30 31 32  0  0
+          0  0  0  0  0  0  0  0  0  0  0  0  0  0  0  0  0
+          0  0  0  0  0  0  0  0  0  0  0  0  0  0  0  0  0
+          0  0  0  0  0  0  0  0  0  0  0  0  0  0  0  0  0
++         2  2  2  2  2  2  2  2  2  2  2  2  2  2  2  2  2
++         2  2  2  2  2  2  2  2  2  2  2  2  2  2  2  0  0
++         0  0  0  0  0  0  0  0  0  0  0  0  0  0  0  0  0
++         0  0  0  0  0  0  0  0  0  0  0  0  0  0  0  0  0
++         0  0  0  0  0  0  0  0  0  0  0  0  0  0  0  0  0
%c cc cc ccc ccc cccc cccc cccc cccc ccccc ccccc ccccc ccccc
%c cc cc ccc ccc cccc cccc cccc cccc ccccc ccccc ccccc ccccc
%f  0.0000000  0.000000000  0.00000000000  0.000000000000000
%f  0.0000000  0.000000000  0.00000000000  0.000000000000000
%i    0    0    0    0      0      0      0      0         0
%i    0    0    0    0      0      0      0      0         0
/*      NGA, ST. LOUIS,MO.                                  
/*   EPHEMERIS COMPUTED FROM 2 DAYS OF DATA                 
/*   EPOCHA v8 SMOOTHER                                     
/*   G2139 IERS2010 SATIGS SATAPC                           
*  2023 11 16 23  0  0.00000000
P  1   9087.429944 -18637.159584 -16737.656177    163.207266                    
V  1  18239.813357  -9834.247363  21620.544862      0.000652                    
P  2  13848.523692 -19791.014126 -10308.001319   -528.027781                    
V  2  12545.319536  -6507.986916  28181.355568      0.050373                    
P  3   -993.698601 -16311.785648 -21104.991867     -9.466422                    
V  3  23792.821379  11406.402757  -9901.557818      0.256177                    
P  4   1209.775086 -26336.339055  -2559.751776    214.809979                    
V  4   2906.775313   3209.299146 -31675.233476      0.104084                    
P  5 -13137.182099   9751.076270  20764.397909   -150.645832                    
V  5 -24089.825332 -11608.507187  -9616.174409     -0.014420                    
P  6 -22425.012642   3556.581738 -13793.867456    504.065919                    
V  6  14016.365950 -10648.688094 -25308.458790     -0.101265                    
P  7  -9085.882970 -12781.256980  21919.554039     11.641953                    
V  7  22482.198808 -14482.189109    419.301319     -0.099097                    
P  8   6061.025694 -22970.647590  11362.076878   -152.450179                    
V  8   4118.173919  14404.031556  27143.772695     -0.018285                    
P  9  -7313.200626 -24319.252505   7594.512266     -0.867311                    
V  9   2039.225404  -9975.848728 -29692.585712      0.112700                    
P 10  24319.955116  10953.962205  -1736.359982    -61.664302                    
V 10   1306.396236   2766.367218  31889.214537     -0.014732                    
P 11 -23687.206771  11598.903710  -2860.699893   -463.042426                    
V 11   1802.912542  -4165.304384 -31629.340316     -0.161775                    
P 12  -1867.304421  16104.899585 -21329.508417   -447.743938                    
V 12 -23003.896846 -12993.812427  -7827.728259     -0.040956                    
P 13 -13014.041208  15295.125710  17068.931687    596.030353                    
V 13     92.633623 -22197.792771  19937.052617      0.040939                    
P 14 -22954.355028 -13488.662301   1332.088635    245.237018                    
V 14   2922.864725  -1921.515924  31287.610801      0.107466                    
P 15  -2877.628453  23973.571415  10322.538313     97.825632                    
V 15  -6247.436899 -12958.104276  27300.735420      0.037553                    
P 16  18650.134530  -3512.334654  18450.334084   -420.837805                    
V 16  19661.580960  13674.405683 -16534.393766      0.066732                    
P 17 -12592.644594 -13589.603915 -18543.765683    723.170152                    
V 17   1597.710581 -24473.156649  16591.982577     -0.003873                    
P 18  10068.912540  11223.046595  21888.286129   -481.085808                    
V 18 -23385.612799  14864.360626   2959.201912     -0.108373                    
P 19 -14756.391767  -4419.094362 -21860.738471    399.879904                    
V 19   1522.892700 -27190.305189   4170.397220      0.052189                    
P 20 -22622.687465   3145.015853  13448.252831    401.280008                    
V 20 -15608.034706  -7417.913202 -24791.002344     -0.019395                    
P 21  15926.760674 -19099.332006  -7357.980019    144.084723                    
V 21  10219.758836  -3629.440802  30437.926158     -0.010068                    
P 22 -23611.036128 -10213.045406  -5521.874656     82.631718                    
V 22  -4910.313876  -6560.211848  30943.050676     -0.069876                    
P 23  18531.838932  16258.947324  10137.749505    100.113356                    
V 23 -12374.195170  -3694.410070  28398.520011      0.063758                    
P 24 -11635.978795  20610.366623 -12013.487011   -372.867235                    
V 24 -13659.515687   6708.749067  26010.662683     -0.089108                    
P 25  11704.151488  18240.002455 -15858.664299    477.693404                    
V 25 -18320.074330  -6836.764208 -21564.747068      0.016439                    
P 26  24316.783813   1357.450648  10888.184611    216.155172                    
V 26  11759.647917   8064.936797 -26574.030101     -0.026546                    
P 27  12941.904201 -11634.762870  19680.264029    -70.899192                    
V 27   2967.041630  25539.019339  13387.361495     -0.052405                    
P 28  21635.395854  -2186.072268 -15278.373357    -47.783036                    
V 28 -14677.024357  12770.390861 -22647.339720     -0.086092                    
P 29   4609.496598  24987.295968   7510.120560   -610.203842                    
V 29  -2538.217018   9559.654445 -30170.533099      0.000806                    
P 30 -18100.214270  -4980.333889  19005.969905   -467.500296                    
V 30  19224.773105 -14253.078803  14401.725223      0.040400                    
P 31  24195.950771  -8402.913396  -7997.688566   -225.802478                    
V 31  -7006.070391   7248.407782 -29152.691963     -0.003660                    
P 32  14649.258425   9199.349508 -20027.079184   -586.521854                    
V 32    679.192791  25794.571753  12028.776873     -0.044181                    
EOF
